start=new Date('2022-07-16T00:00:00.000Z').valueOf();
sats=[{"PERIOD":"95.592","SITE":"AFETR","ELEMENT_SET_NO":"999","ARG_OF_PERICENTER":"73.8952","LAUNCH_DATE":"2020-01-29","REV_AT_EPOCH":"13548","OBJECT_ID":"2020-006T","MEAN_MOTION_DOT":"-0.00000448","TIME_SYSTEM":"UTC","MEAN_MOTION_DDOT":"0.0000000000000","EPOCH":"2022-07-15T06:13:21.067968","SEMIMAJOR_AXIS":"6925.352","FILE":"3514546","INCLINATION":"53.0531","OBJECT_TYPE":"PAYLOAD","PERIAPSIS":"546.077","DECAY_DATE":null,"COUNTRY_CODE":"US","MEAN_ELEMENT_THEORY":"SGP4","APOAPSIS":"548.357","ECCENTRICITY":"0.00016460","CENTER_NAME":"EARTH","OBJECT_NAME":"STARLINK-1169","GP_ID":"208170096","RA_OF_ASC_NODE":"152.6204","BSTAR":"-0.00001114700000","NORAD_CAT_ID":"45061","TLE_LINE1":"1 45061U 20006T   22196.25927162 -.00000448  00000-0 -11147-4 0  9994","EPHEMERIS_TYPE":"0","MEAN_ANOMALY":"286.2218","CLASSIFICATION_TYPE":"U","REF_FRAME":"TEME","MEAN_MOTION":"15.06398922","RCS_SIZE":"LARGE","TLE_LINE2":"2 45061  53.0531 152.6204 0001646  73.8952 286.2218 15.06398922135481"},{"TIME_SYSTEM":"UTC","MEAN_MOTION_DDOT":"0.0000000000000","OBJECT_ID":"2020-006U","MEAN_MOTION_DOT":"-0.00000184","LAUNCH_DATE":"2020-01-29","REV_AT_EPOCH":"13553","SITE":"AFETR","ARG_OF_PERICENTER":"69.0234","ELEMENT_SET_NO":"999","PERIOD":"95.592","DECAY_DATE":null,"OBJECT_TYPE":"PAYLOAD","PERIAPSIS":"546.100","FILE":"3514546","INCLINATION":"53.0542","EPOCH":"2022-07-15T13:49:50.083968","SEMIMAJOR_AXIS":"6925.340","NORAD_CAT_ID":"45062","BSTAR":"0.00000652680000","RA_OF_ASC_NODE":"151.1979","OBJECT_NAME":"STARLINK-1171","GP_ID":"208169842","ECCENTRICITY":"0.00015950","CENTER_NAME":"EARTH","MEAN_ELEMENT_THEORY":"SGP4","COUNTRY_CODE":"US","APOAPSIS":"548.309","TLE_LINE2":"2 45062  53.0542 151.1979 0001595  69.0234 291.0926 15.06402848135539","RCS_SIZE":"LARGE","REF_FRAME":"TEME","MEAN_MOTION":"15.06402848","CLASSIFICATION_TYPE":"U","MEAN_ANOMALY":"291.0926","TLE_LINE1":"1 45062U 20006U   22196.57627412 -.00000184  00000-0  65268-5 0  9995","EPHEMERIS_TYPE":"0"},{"EPOCH":"2022-07-15T20:30:33.730848","SEMIMAJOR_AXIS":"6925.348","FILE":"3514839","INCLINATION":"53.0541","OBJECT_TYPE":"PAYLOAD","PERIAPSIS":"546.182","DECAY_DATE":null,"PERIOD":"95.592","SITE":"AFETR","ELEMENT_SET_NO":"999","ARG_OF_PERICENTER":"70.7216","LAUNCH_DATE":"2020-01-29","REV_AT_EPOCH":"13585","OBJECT_ID":"2020-006W","MEAN_MOTION_DOT":"0.00005728","TIME_SYSTEM":"UTC","MEAN_MOTION_DDOT":"0.0000000000000","EPHEMERIS_TYPE":"0","TLE_LINE1":"1 45064U 20006W   22196.85455707  .00005728  00000-0  40315-3 0  9996","MEAN_ANOMALY":"289.3933","CLASSIFICATION_TYPE":"U","REF_FRAME":"TEME","MEAN_MOTION":"15.06400190","RCS_SIZE":"LARGE","TLE_LINE2":"2 45064  53.0541 129.9583 0001488  70.7216 289.3933 15.06400190135855","COUNTRY_CODE":"US","MEAN_ELEMENT_THEORY":"SGP4","APOAPSIS":"548.243","CENTER_NAME":"EARTH","ECCENTRICITY":"0.00014880","GP_ID":"208200647","OBJECT_NAME":"STARLINK-1133","RA_OF_ASC_NODE":"129.9583","BSTAR":"0.00040315000000","NORAD_CAT_ID":"45064"},{"RCS_SIZE":"LARGE","TLE_LINE2":"2 45065  53.0543 131.4267 0001411  77.9410 282.1737 15.06395176135801","EPHEMERIS_TYPE":"0","TLE_LINE1":"1 45065U 20006X   22196.52650093  .00000920  00000-0  80648-4 0  9999","MEAN_ANOMALY":"282.1737","CLASSIFICATION_TYPE":"U","REF_FRAME":"TEME","MEAN_MOTION":"15.06395176","BSTAR":"0.00008064800000","NORAD_CAT_ID":"45065","MEAN_ELEMENT_THEORY":"SGP4","COUNTRY_CODE":"US","APOAPSIS":"548.206","CENTER_NAME":"EARTH","ECCENTRICITY":"0.00014110","OBJECT_NAME":"STARLINK-1139","GP_ID":"208169346","RA_OF_ASC_NODE":"131.4267","FILE":"3514546","INCLINATION":"53.0543","PERIAPSIS":"546.251","OBJECT_TYPE":"PAYLOAD","DECAY_DATE":null,"EPOCH":"2022-07-15T12:38:09.680352","SEMIMAJOR_AXIS":"6925.363","LAUNCH_DATE":"2020-01-29","REV_AT_EPOCH":"13580","OBJECT_ID":"2020-006X","MEAN_MOTION_DOT":"0.00000920","TIME_SYSTEM":"UTC","MEAN_MOTION_DDOT":"0.0000000000000","PERIOD":"95.592","SITE":"AFETR","ARG_OF_PERICENTER":"77.9410","ELEMENT_SET_NO":"999"},{"TLE_LINE2":"2 45066  53.0529 132.4252 0001623  67.0884 293.0276 15.06397699135767","RCS_SIZE":"LARGE","REF_FRAME":"TEME","MEAN_MOTION":"15.06397699","CLASSIFICATION_TYPE":"U","MEAN_ANOMALY":"293.0276","EPHEMERIS_TYPE":"0","TLE_LINE1":"1 45066U 20006Y   22196.30166867  .00001340  00000-0  10887-3 0  9991","NORAD_CAT_ID":"45066","BSTAR":"0.00010887000000","RA_OF_ASC_NODE":"132.4252","OBJECT_NAME":"STARLINK-1145","GP_ID":"208169598","CENTER_NAME":"EARTH","ECCENTRICITY":"0.00016230","COUNTRY_CODE":"US","MEAN_ELEMENT_THEORY":"SGP4","APOAPSIS":"548.345","DECAY_DATE":null,"OBJECT_TYPE":"PAYLOAD","PERIAPSIS":"546.097","FILE":"3514546","INCLINATION":"53.0529","EPOCH":"2022-07-15T07:14:24.173088","SEMIMAJOR_AXIS":"6925.356","TIME_SYSTEM":"UTC","MEAN_MOTION_DDOT":"0.0000000000000","OBJECT_ID":"2020-006Y","MEAN_MOTION_DOT":"0.00001340","LAUNCH_DATE":"2020-01-29","REV_AT_EPOCH":"13576","SITE":"AFETR","ELEMENT_SET_NO":"999","ARG_OF_PERICENTER":"67.0884","PERIOD":"95.592"},{"REV_AT_EPOCH":"13585","LAUNCH_DATE":"2020-01-29","MEAN_MOTION_DDOT":"0.0000000000000","TIME_SYSTEM":"UTC","MEAN_MOTION_DOT":"0.00001876","OBJECT_ID":"2020-006Z","ELEMENT_SET_NO":"999","ARG_OF_PERICENTER":"74.0824","SITE":"AFETR","PERIOD":"95.592","FILE":"3514839","INCLINATION":"53.0567","DECAY_DATE":null,"PERIAPSIS":"546.152","OBJECT_TYPE":"PAYLOAD","SEMIMAJOR_AXIS":"6925.352","EPOCH":"2022-07-15T20:19:55.934688","NORAD_CAT_ID":"45067","BSTAR":"0.00014478000000","ECCENTRICITY":"0.00015380","CENTER_NAME":"EARTH","APOAPSIS":"548.282","MEAN_ELEMENT_THEORY":"SGP4","COUNTRY_CODE":"US","RA_OF_ASC_NODE":"129.9850","OBJECT_NAME":"STARLINK-1150","GP_ID":"208200897","TLE_LINE2":"2 45067  53.0567 129.9850 0001538  74.0824 286.0334 15.06398905135850","RCS_SIZE":"LARGE","MEAN_ANOMALY":"286.0334","TLE_LINE1":"1 45067U 20006Z   22196.84717517  .00001876  00000-0  14478-3 0  9999","EPHEMERIS_TYPE":"0","MEAN_MOTION":"15.06398905","REF_FRAME":"TEME","CLASSIFICATION_TYPE":"U"},{"RA_OF_ASC_NODE":"129.9791","OBJECT_NAME":"STARLINK-1161","GP_ID":"208201148","CENTER_NAME":"EARTH","ECCENTRICITY":"0.00015110","MEAN_ELEMENT_THEORY":"SGP4","COUNTRY_CODE":"US","APOAPSIS":"548.267","NORAD_CAT_ID":"45068","BSTAR":"0.00006473000000","REF_FRAME":"TEME","MEAN_MOTION":"15.06397716","CLASSIFICATION_TYPE":"U","MEAN_ANOMALY":"265.0670","TLE_LINE1":"1 45068U 20006AA  22196.82041519  .00000683  00000-0  64730-4 0  9992","EPHEMERIS_TYPE":"0","TLE_LINE2":"2 45068  53.0568 129.9791 0001511  95.0492 265.0670 15.06397716135849","RCS_SIZE":"LARGE","SITE":"AFETR","ELEMENT_SET_NO":"999","ARG_OF_PERICENTER":"95.0492","PERIOD":"95.592","TIME_SYSTEM":"UTC","MEAN_MOTION_DDOT":"0.0000000000000","OBJECT_ID":"2020-006AA","MEAN_MOTION_DOT":"0.00000683","LAUNCH_DATE":"2020-01-29","REV_AT_EPOCH":"13584","EPOCH":"2022-07-15T19:41:23.872416","SEMIMAJOR_AXIS":"6925.356","DECAY_DATE":null,"OBJECT_TYPE":"PAYLOAD","PERIAPSIS":"546.174","INCLINATION":"53.0568","FILE":"3514839"},{"RCS_SIZE":"LARGE","TLE_LINE2":"2 45071  53.0531 130.1356 0001508  67.3433 292.7716 15.06398804135844","CLASSIFICATION_TYPE":"U","REF_FRAME":"TEME","MEAN_MOTION":"15.06398804","EPHEMERIS_TYPE":"0","TLE_LINE1":"1 45071U 20006AD  22196.81399737  .00003142  00000-0  22971-3 0  9996","MEAN_ANOMALY":"292.7716","BSTAR":"0.00022971000000","NORAD_CAT_ID":"45071","OBJECT_NAME":"STARLINK-1167","GP_ID":"208199896","RA_OF_ASC_NODE":"130.1356","MEAN_ELEMENT_THEORY":"SGP4","COUNTRY_CODE":"US","APOAPSIS":"548.262","ECCENTRICITY":"0.00015080","CENTER_NAME":"EARTH","OBJECT_TYPE":"PAYLOAD","PERIAPSIS":"546.173","DECAY_DATE":null,"INCLINATION":"53.0531","FILE":"3514839","EPOCH":"2022-07-15T19:32:09.372768","SEMIMAJOR_AXIS":"6925.352","OBJECT_ID":"2020-006AD","MEAN_MOTION_DOT":"0.00003142","TIME_SYSTEM":"UTC","MEAN_MOTION_DDOT":"0.0000000000000","LAUNCH_DATE":"2020-01-29","REV_AT_EPOCH":"13584","PERIOD":"95.592","SITE":"AFETR","ELEMENT_SET_NO":"999","ARG_OF_PERICENTER":"67.3433"},{"RCS_SIZE":"LARGE","TLE_LINE2":"2 45072  53.0558 130.1233 0001519  75.5161 284.5996 15.06389363135848","CLASSIFICATION_TYPE":"U","MEAN_MOTION":"15.06389363","REF_FRAME":"TEME","TLE_LINE1":"1 45072U 20006AE  22196.81769416  .00002495  00000-0  18636-3 0  9995","EPHEMERIS_TYPE":"0","MEAN_ANOMALY":"284.5996","BSTAR":"0.00018636000000","NORAD_CAT_ID":"45072","GP_ID":"208200146","OBJECT_NAME":"STARLINK-1168","RA_OF_ASC_NODE":"130.1233","APOAPSIS":"548.298","MEAN_ELEMENT_THEORY":"SGP4","COUNTRY_CODE":"US","ECCENTRICITY":"0.00015190","CENTER_NAME":"EARTH","OBJECT_TYPE":"PAYLOAD","PERIAPSIS":"546.194","DECAY_DATE":null,"FILE":"3514839","INCLINATION":"53.0558","SEMIMAJOR_AXIS":"6925.381","EPOCH":"2022-07-15T19:37:28.775424","MEAN_MOTION_DOT":"0.00002495","OBJECT_ID":"2020-006AE","MEAN_MOTION_DDOT":"0.0000000000000","TIME_SYSTEM":"UTC","REV_AT_EPOCH":"13584","LAUNCH_DATE":"2020-01-29","PERIOD":"95.593","ELEMENT_SET_NO":"999","ARG_OF_PERICENTER":"75.5161","SITE":"AFETR"},{"NORAD_CAT_ID":"45073","BSTAR":"0.00022403000000","RA_OF_ASC_NODE":"129.9883","OBJECT_NAME":"STARLINK-1170","GP_ID":"208200397","CENTER_NAME":"EARTH","ECCENTRICITY":"0.00018540","COUNTRY_CODE":"US","MEAN_ELEMENT_THEORY":"SGP4","APOAPSIS":"548.515","TLE_LINE2":"2 45073  53.0543 129.9883 0001854  64.2842 295.8338 15.06394164135843","RCS_SIZE":"LARGE","REF_FRAME":"TEME","MEAN_MOTION":"15.06394164","CLASSIFICATION_TYPE":"U","MEAN_ANOMALY":"295.8338","EPHEMERIS_TYPE":"0","TLE_LINE1":"1 45073U 20006AF  22196.84348810  .00003056  00000-0  22403-3 0  9991","TIME_SYSTEM":"UTC","MEAN_MOTION_DDOT":"0.0000000000000","OBJECT_ID":"2020-006AF","MEAN_MOTION_DOT":"0.00003056","LAUNCH_DATE":"2020-01-29","REV_AT_EPOCH":"13584","SITE":"AFETR","ARG_OF_PERICENTER":"64.2842","ELEMENT_SET_NO":"999","PERIOD":"95.593","DECAY_DATE":null,"OBJECT_TYPE":"PAYLOAD","PERIAPSIS":"545.947","INCLINATION":"53.0543","FILE":"3514839","EPOCH":"2022-07-15T20:14:37.371840","SEMIMAJOR_AXIS":"6925.366"}];
